{
  "norad_id": 47910,
  "name": "STARLINK-2370",
  "history": [
    {
      "epoch": "2026-03-28T13:01:05.763648",
      "apogee_km": 475.9771031662094,
      "perigee_km": 474.33176495871976,
      "latitude_deg": 42.55509471806354,
      "longitude_deg": 103.07307072007097,
      "semi_major_axis_km": 6853.291434062464,
      "eccentricity": 0.00012004,
      "inclination_deg": 53.1591,
      "raan_deg": 180.5497,
      "arg_perigee_deg": 95.5997,
      "mean_anomaly_deg": 264.5141,
      "mean_motion_rev_day": 15.30220308
    }
  ]
}