{"fetched_at":"2026-03-29T02:12:04Z","count":15717,"tles":[{"name":"STARLINK-2370","line1":"1 47910U 21021BC  26087.54242782  .00008365  00000+0  29407-3 0  9990","line2":"2 47910  53.1591 180.5497 0001200  95.5997 264.5141 15.30220308279148","category":"Starlink"}]}